start=new Date('2023-02-14T00:00:00.000Z').valueOf();
sats=[{"MEAN_ANOMALY":"255.5646","EPHEMERIS_TYPE":"0","CENTER_NAME":"EARTH","SEMIMAJOR_AXIS":"6917.918","GP_ID":"225337481","TLE_LINE1":"1 49427U 21104V   23044.75053225 -.00014027  00000-0 -86524-3 0  9990","OBJECT_ID":"2021-104V","INCLINATION":"53.2140","NORAD_CAT_ID":"49427","REF_FRAME":"TEME","EPOCH":"2023-02-13T18:00:45.986400","APOAPSIS":"540.871","REV_AT_EPOCH":"7065","RA_OF_ASC_NODE":"216.7240","ECCENTRICITY":"0.00015720","BSTAR":"-0.00086524000000","RCS_SIZE":"LARGE","MEAN_MOTION_DDOT":"0.0000000000000","MEAN_MOTION":"15.08827601","LAUNCH_DATE":"2021-11-13","OBJECT_TYPE":"PAYLOAD","SITE":"AFETR","FILE":"3789735","DECAY_DATE":null,"PERIAPSIS":"538.696","MEAN_ELEMENT_THEORY":"SGP4","CLASSIFICATION_TYPE":"U","TIME_SYSTEM":"UTC","COUNTRY_CODE":"US","TLE_LINE2":"2 49427  53.2140 216.7240 0001572 104.5520 255.5646 15.08827601 70656","PERIOD":"95.438","ARG_OF_PERICENTER":"104.5520","OBJECT_NAME":"STARLINK-3131","MEAN_MOTION_DOT":"-0.00014027","ELEMENT_SET_NO":"999"},{"ECCENTRICITY":"0.00012220","BSTAR":"-0.00007282900000","RA_OF_ASC_NODE":"217.6633","SITE":"AFETR","FILE":"3788981","MEAN_MOTION":"15.08828587","RCS_SIZE":"LARGE","MEAN_MOTION_DDOT":"0.0000000000000","LAUNCH_DATE":"2021-11-13","OBJECT_TYPE":"PAYLOAD","CLASSIFICATION_TYPE":"U","PERIAPSIS":"538.935","MEAN_ELEMENT_THEORY":"SGP4","COUNTRY_CODE":"US","TIME_SYSTEM":"UTC","DECAY_DATE":null,"OBJECT_NAME":"STARLINK-3121","ELEMENT_SET_NO":"999","MEAN_MOTION_DOT":"-0.00001446","TLE_LINE2":"2 49428  53.2130 217.6633 0001222  81.3826 278.7304 15.08828587 70602","ARG_OF_PERICENTER":"81.3826","PERIOD":"95.438","SEMIMAJOR_AXIS":"6917.915","CENTER_NAME":"EARTH","TLE_LINE1":"1 49428U 21104W   23044.54175550 -.00001446  00000-0 -72829-4 0  9999","GP_ID":"225292793","MEAN_ANOMALY":"278.7304","EPHEMERIS_TYPE":"0","INCLINATION":"53.2130","OBJECT_ID":"2021-104W","EPOCH":"2023-02-13T13:00:07.675200","APOAPSIS":"540.626","REV_AT_EPOCH":"7060","NORAD_CAT_ID":"49428","REF_FRAME":"TEME"},{"SEMIMAJOR_AXIS":"6917.937","CENTER_NAME":"EARTH","TLE_LINE1":"1 49430U 21104Y   23044.74689652 -.00000911  00000-0 -39192-4 0  9999","GP_ID":"225338799","MEAN_ANOMALY":"262.6864","EPHEMERIS_TYPE":"0","EPOCH":"2023-02-13T17:55:31.859328","REV_AT_EPOCH":"7063","APOAPSIS":"540.598","NORAD_CAT_ID":"49430","REF_FRAME":"TEME","INCLINATION":"53.2133","OBJECT_ID":"2021-104Y","FILE":"3789810","SITE":"AFETR","RCS_SIZE":"LARGE","MEAN_MOTION_DDOT":"0.0000000000000","MEAN_MOTION":"15.08821470","LAUNCH_DATE":"2021-11-13","OBJECT_TYPE":"PAYLOAD","ECCENTRICITY":"0.00011500","BSTAR":"-0.00003919200000","RA_OF_ASC_NODE":"216.7425","OBJECT_NAME":"STARLINK-3138","MEAN_MOTION_DOT":"-0.00000911","ELEMENT_SET_NO":"999","TLE_LINE2":"2 49430  53.2133 216.7425 0001150  97.4258 262.6864 15.08821470 70634","ARG_OF_PERICENTER":"97.4258","PERIOD":"95.439","CLASSIFICATION_TYPE":"U","PERIAPSIS":"539.006","MEAN_ELEMENT_THEORY":"SGP4","TIME_SYSTEM":"UTC","COUNTRY_CODE":"US","DECAY_DATE":null},{"BSTAR":"0.00001579500000","ECCENTRICITY":"0.00011670","RA_OF_ASC_NODE":"217.8135","SITE":"AFETR","FILE":"3789366","LAUNCH_DATE":"2021-11-13","OBJECT_TYPE":"PAYLOAD","RCS_SIZE":"LARGE","MEAN_MOTION_DDOT":"0.0000000000000","MEAN_MOTION":"15.08836008","COUNTRY_CODE":"US","TIME_SYSTEM":"UTC","CLASSIFICATION_TYPE":"U","PERIAPSIS":"538.950","MEAN_ELEMENT_THEORY":"SGP4","DECAY_DATE":null,"MEAN_MOTION_DOT":"-0.00000036","ELEMENT_SET_NO":"999","OBJECT_NAME":"STARLINK-3153","ARG_OF_PERICENTER":"90.3361","PERIOD":"95.438","TLE_LINE2":"2 49431  53.2135 217.8135 0001167  90.3361 269.7765 15.08836008 69529","TLE_LINE1":"1 49431U 21104Z   23044.50863325 -.00000036  00000-0  15795-4 0  9995","GP_ID":"225325085","SEMIMAJOR_AXIS":"6917.893","CENTER_NAME":"EARTH","EPHEMERIS_TYPE":"0","MEAN_ANOMALY":"269.7765","INCLINATION":"53.2135","OBJECT_ID":"2021-104Z","APOAPSIS":"540.565","REV_AT_EPOCH":"6952","EPOCH":"2023-02-13T12:12:25.912800","REF_FRAME":"TEME","NORAD_CAT_ID":"49431"},{"TLE_LINE1":"1 49432U 21104AA  23044.18203192  .00003075  00000-0  21122-3 0  9995","GP_ID":"225325108","CENTER_NAME":"EARTH","SEMIMAJOR_AXIS":"6917.888","EPHEMERIS_TYPE":"0","MEAN_ANOMALY":"286.6515","INCLINATION":"53.2166","OBJECT_ID":"2021-104AA","APOAPSIS":"540.899","REV_AT_EPOCH":"6961","EPOCH":"2023-02-13T04:22:07.557888","REF_FRAME":"TEME","NORAD_CAT_ID":"49432","BSTAR":"0.00021122000000","ECCENTRICITY":"0.00016560","RA_OF_ASC_NODE":"209.2690","SITE":"AFETR","FILE":"3789366","LAUNCH_DATE":"2021-11-13","OBJECT_TYPE":"PAYLOAD","RCS_SIZE":"LARGE","MEAN_MOTION":"15.08837396","MEAN_MOTION_DDOT":"0.0000000000000","TIME_SYSTEM":"UTC","COUNTRY_CODE":"US","CLASSIFICATION_TYPE":"U","MEAN_ELEMENT_THEORY":"SGP4","PERIAPSIS":"538.608","DECAY_DATE":null,"ELEMENT_SET_NO":"999","MEAN_MOTION_DOT":"0.00003075","OBJECT_NAME":"STARLINK-3158","ARG_OF_PERICENTER":"73.4659","PERIOD":"95.438","TLE_LINE2":"2 49432  53.2166 209.2690 0001656  73.4659 286.6515 15.08837396 69612"},{"CLASSIFICATION_TYPE":"U","MEAN_ELEMENT_THEORY":"SGP4","PERIAPSIS":"538.987","TIME_SYSTEM":"UTC","COUNTRY_CODE":"US","DECAY_DATE":null,"OBJECT_NAME":"STARLINK-3079","ELEMENT_SET_NO":"999","MEAN_MOTION_DOT":"0.00003499","TLE_LINE2":"2 49433  53.2136 196.5998 0001062 103.3527 256.7583 15.08847693 70938","ARG_OF_PERICENTER":"103.3527","PERIOD":"95.437","ECCENTRICITY":"0.00010620","BSTAR":"0.00023777000000","RA_OF_ASC_NODE":"196.5998","SITE":"AFETR","FILE":"3789741","MEAN_MOTION":"15.08847693","RCS_SIZE":"LARGE","MEAN_MOTION_DDOT":"0.0000000000000","LAUNCH_DATE":"2021-11-13","OBJECT_TYPE":"PAYLOAD","INCLINATION":"53.2136","OBJECT_ID":"2021-104AB","EPOCH":"2023-02-13T18:40:32.234304","APOAPSIS":"540.457","REV_AT_EPOCH":"7093","NORAD_CAT_ID":"49433","REF_FRAME":"TEME","CENTER_NAME":"EARTH","SEMIMAJOR_AXIS":"6917.857","TLE_LINE1":"1 49433U 21104AB  23044.77815086  .00003499  00000-0  23777-3 0  9990","GP_ID":"225337086","MEAN_ANOMALY":"256.7583","EPHEMERIS_TYPE":"0"},{"INCLINATION":"53.2157","OBJECT_ID":"2021-104AC","EPOCH":"2023-02-13T17:51:32.734368","REV_AT_EPOCH":"7064","APOAPSIS":"540.407","NORAD_CAT_ID":"49434","REF_FRAME":"TEME","CENTER_NAME":"EARTH","SEMIMAJOR_AXIS":"6917.785","TLE_LINE1":"1 49434U 21104AC  23044.74412887  .00005867  00000-0  38607-3 0  9999","GP_ID":"225337084","MEAN_ANOMALY":"273.7096","EPHEMERIS_TYPE":"0","CLASSIFICATION_TYPE":"U","MEAN_ELEMENT_THEORY":"SGP4","PERIAPSIS":"538.893","TIME_SYSTEM":"UTC","COUNTRY_CODE":"US","DECAY_DATE":null,"OBJECT_NAME":"STARLINK-3134","MEAN_MOTION_DOT":"0.00005867","ELEMENT_SET_NO":"999","TLE_LINE2":"2 49434  53.2157 216.7599 0001094  86.4022 273.7096 15.08871261 70644","ARG_OF_PERICENTER":"86.4022","PERIOD":"95.436","ECCENTRICITY":"0.00010940","BSTAR":"0.00038607000000","RA_OF_ASC_NODE":"216.7599","FILE":"3789741","SITE":"AFETR","RCS_SIZE":"LARGE","MEAN_MOTION":"15.08871261","MEAN_MOTION_DDOT":"0.0000000000000","OBJECT_TYPE":"PAYLOAD","LAUNCH_DATE":"2021-11-13"},{"INCLINATION":"53.2159","OBJECT_ID":"2021-104AD","REF_FRAME":"TEME","NORAD_CAT_ID":"49435","REV_AT_EPOCH":"6979","APOAPSIS":"540.264","EPOCH":"2023-02-13T10:50:17.468448","EPHEMERIS_TYPE":"0","MEAN_ANOMALY":"259.5557","TLE_LINE1":"1 49435U 21104AD  23044.45159107  .00015977  00000-0  10194-2 0  9994","GP_ID":"225324586","SEMIMAJOR_AXIS":"6917.856","CENTER_NAME":"EARTH","DECAY_DATE":null,"TIME_SYSTEM":"UTC","COUNTRY_CODE":"US","CLASSIFICATION_TYPE":"U","MEAN_ELEMENT_THEORY":"SGP4","PERIAPSIS":"539.178","ARG_OF_PERICENTER":"100.5523","PERIOD":"95.437","TLE_LINE2":"2 49435  53.2159 198.0638 0000785 100.5523 259.5557 15.08848057 69798","MEAN_MOTION_DOT":"0.00015977","ELEMENT_SET_NO":"999","OBJECT_NAME":"STARLINK-3117","RA_OF_ASC_NODE":"198.0638","BSTAR":"0.00101940000000","ECCENTRICITY":"0.00007850","LAUNCH_DATE":"2021-11-13","OBJECT_TYPE":"PAYLOAD","RCS_SIZE":"LARGE","MEAN_MOTION_DDOT":"0.0000000000000","MEAN_MOTION":"15.08848057","SITE":"AFETR","FILE":"3789366"},{"EPOCH":"2023-02-13T17:10:27.363936","APOAPSIS":"540.511","REV_AT_EPOCH":"7090","NORAD_CAT_ID":"49436","REF_FRAME":"TEME","INCLINATION":"53.2143","OBJECT_ID":"2021-104AE","CENTER_NAME":"EARTH","SEMIMAJOR_AXIS":"6917.831","GP_ID":"225338564","TLE_LINE1":"1 49436U 21104AE  23044.71559449  .00023302  00000-0  14767-2 0  9998","MEAN_ANOMALY":"267.2642","EPHEMERIS_TYPE":"0","OBJECT_NAME":"STARLINK-3049","MEAN_MOTION_DOT":"0.00023302","ELEMENT_SET_NO":"999","TLE_LINE2":"2 49436  53.2143 196.8820 0001179  92.8485 267.2642 15.08856245 70903","PERIOD":"95.437","ARG_OF_PERICENTER":"92.8485","PERIAPSIS":"538.880","MEAN_ELEMENT_THEORY":"SGP4","CLASSIFICATION_TYPE":"U","COUNTRY_CODE":"US","TIME_SYSTEM":"UTC","DECAY_DATE":null,"FILE":"3789788","SITE":"AFETR","MEAN_MOTION":"15.08856245","RCS_SIZE":"LARGE","MEAN_MOTION_DDOT":"0.0000000000000","OBJECT_TYPE":"PAYLOAD","LAUNCH_DATE":"2021-11-13","ECCENTRICITY":"0.00011790","BSTAR":"0.00147670000000","RA_OF_ASC_NODE":"196.8820"},{"EPHEMERIS_TYPE":"0","MEAN_ANOMALY":"292.2833","TLE_LINE1":"1 49437U 21104AF  23044.70823431  .00022551  00000-0  14300-2 0  9991","GP_ID":"225337131","SEMIMAJOR_AXIS":"6917.843","CENTER_NAME":"EARTH","INCLINATION":"53.2144","OBJECT_ID":"2021-104AF","REF_FRAME":"TEME","NORAD_CAT_ID":"49437","APOAPSIS":"540.691","REV_AT_EPOCH":"7090","EPOCH":"2023-02-13T16:59:51.444384","RA_OF_ASC_NODE":"196.9150","BSTAR":"0.00143000000000","ECCENTRICITY":"0.00014210","OBJECT_TYPE":"PAYLOAD","LAUNCH_DATE":"2021-11-13","MEAN_MOTION_DDOT":"0.0000000000000","RCS_SIZE":"LARGE","MEAN_MOTION":"15.08852303","SITE":"AFETR","FILE":"3789744","DECAY_DATE":null,"COUNTRY_CODE":"US","TIME_SYSTEM":"UTC","CLASSIFICATION_TYPE":"U","PERIAPSIS":"538.725","MEAN_ELEMENT_THEORY":"SGP4","ARG_OF_PERICENTER":"67.8310","PERIOD":"95.437","TLE_LINE2":"2 49437  53.2144 196.9150 0001421  67.8310 292.2833 15.08852303 70902","ELEMENT_SET_NO":"999","MEAN_MOTION_DOT":"0.00022551","OBJECT_NAME":"STARLINK-3130"}];
